[{"OBJECT_NAME":"TDRS 11","OBJECT_ID":"2013-004A","EPOCH":"2026-04-25T22:00:44.487648","MEAN_MOTION":1.00264257,"ECCENTRICITY":0.00054236,"INCLINATION":3.4447,"RA_OF_ASC_NODE":30.3405,"ARG_OF_PERICENTER":0.8571,"MEAN_ANOMALY":338.772,"EPHEMERIS_TYPE":0,"CLASSIFICATION_TYPE":"U","NORAD_CAT_ID":39070,"ELEMENT_SET_NO":999,"REV_AT_EPOCH":4616,"BSTAR":0,"MEAN_MOTION_DOT":6.8e-7,"MEAN_MOTION_DDOT":0},{"OBJECT_NAME":"TDRS 12","OBJECT_ID":"2014-004A","EPOCH":"2026-04-25T21:58:23.189952","MEAN_MOTION":1.00269717,"ECCENTRICITY":0.00020051,"INCLINATION":3.9278,"RA_OF_ASC_NODE":18.2118,"ARG_OF_PERICENTER":247.6066,"MEAN_ANOMALY":236.8049,"EPHEMERIS_TYPE":0,"CLASSIFICATION_TYPE":"U","NORAD_CAT_ID":39504,"ELEMENT_SET_NO":999,"REV_AT_EPOCH":4375,"BSTAR":0,"MEAN_MOTION_DOT":-2.82e-6,"MEAN_MOTION_DDOT":0},{"OBJECT_NAME":"GPM-CORE","OBJECT_ID":"2014-009C","EPOCH":"2026-04-25T23:18:49.590720","MEAN_MOTION":15.44651689,"ECCENTRICITY":0.00122255,"INCLINATION":64.9709,"RA_OF_ASC_NODE":123.1058,"ARG_OF_PERICENTER":260.3961,"MEAN_ANOMALY":99.5798,"EPHEMERIS_TYPE":0,"CLASSIFICATION_TYPE":"U","NORAD_CAT_ID":39574,"ELEMENT_SET_NO":999,"REV_AT_EPOCH":68974,"BSTAR":0.00016923338,"MEAN_MOTION_DOT":7.699e-5,"MEAN_MOTION_DDOT":0},{"OBJECT_NAME":"MMS 1","OBJECT_ID":"2015-011A","EPOCH":"2026-04-26T00:00:02.999808","MEAN_MOTION":0.28219139,"ECCENTRICITY":0.83654097,"INCLINATION":71.4226,"RA_OF_ASC_NODE":349.485,"ARG_OF_PERICENTER":166.4039,"MEAN_ANOMALY":14.7519,"EPHEMERIS_TYPE":0,"CLASSIFICATION_TYPE":"U","NORAD_CAT_ID":40482,"ELEMENT_SET_NO":999,"REV_AT_EPOCH":135,"BSTAR":0,"MEAN_MOTION_DOT":-7.0e-6,"MEAN_MOTION_DDOT":0},{"OBJECT_NAME":"MMS 2","OBJECT_ID":"2015-011B","EPOCH":"2026-04-26T00:00:02.999808","MEAN_MOTION":0.28218983,"ECCENTRICITY":0.83661732,"INCLINATION":71.4227,"RA_OF_ASC_NODE":349.4872,"ARG_OF_PERICENTER":166.4098,"MEAN_ANOMALY":14.7376,"EPHEMERIS_TYPE":0,"CLASSIFICATION_TYPE":"U","NORAD_CAT_ID":40483,"ELEMENT_SET_NO":999,"REV_AT_EPOCH":135,"BSTAR":0,"MEAN_MOTION_DOT":-7.01e-6,"MEAN_MOTION_DDOT":0},{"OBJECT_NAME":"MMS 3","OBJECT_ID":"2015-011C","EPOCH":"2026-04-26T00:00:02.999808","MEAN_MOTION":0.2821895,"ECCENTRICITY":0.83654052,"INCLINATION":71.4255,"RA_OF_ASC_NODE":349.4918,"ARG_OF_PERICENTER":166.4041,"MEAN_ANOMALY":14.7398,"EPHEMERIS_TYPE":0,"CLASSIFICATION_TYPE":"U","NORAD_CAT_ID":40484,"ELEMENT_SET_NO":999,"REV_AT_EPOCH":135,"BSTAR":0,"MEAN_MOTION_DOT":-7.0e-6,"MEAN_MOTION_DDOT":0},{"OBJECT_NAME":"MMS 4","OBJECT_ID":"2015-011D","EPOCH":"2026-04-26T00:00:02.999808","MEAN_MOTION":0.2821877,"ECCENTRICITY":0.83649663,"INCLINATION":71.4226,"RA_OF_ASC_NODE":349.4872,"ARG_OF_PERICENTER":166.4118,"MEAN_ANOMALY":14.7271,"EPHEMERIS_TYPE":0,"CLASSIFICATION_TYPE":"U","NORAD_CAT_ID":40485,"ELEMENT_SET_NO":999,"REV_AT_EPOCH":135,"BSTAR":0,"MEAN_MOTION_DOT":-7.01e-6,"MEAN_MOTION_DDOT":0},{"OBJECT_NAME":"TDRS 13","OBJECT_ID":"2017-047A","EPOCH":"2026-04-25T22:06:44.887968","MEAN_MOTION":1.0027181,"ECCENTRICITY":0.00128316,"INCLINATION":3.4406,"RA_OF_ASC_NODE":1.4356,"ARG_OF_PERICENTER":98.4587,"MEAN_ANOMALY":74.2455,"EPHEMERIS_TYPE":0,"CLASSIFICATION_TYPE":"U","NORAD_CAT_ID":42915,"ELEMENT_SET_NO":999,"REV_AT_EPOCH":3182,"BSTAR":0,"MEAN_MOTION_DOT":-1.12e-6,"MEAN_MOTION_DDOT":0},{"OBJECT_NAME":"NOAA 20 (JPSS-1)","OBJECT_ID":"2017-073A","EPOCH":"2026-04-25T20:12:12.227616","MEAN_MOTION":14.19547502,"ECCENTRICITY":0.00021078,"INCLINATION":98.7744,"RA_OF_ASC_NODE":55.7767,"ARG_OF_PERICENTER":73.3563,"MEAN_ANOMALY":286.7844,"EPHEMERIS_TYPE":0,"CLASSIFICATION_TYPE":"U","NORAD_CAT_ID":43013,"ELEMENT_SET_NO":999,"REV_AT_EPOCH":43704,"BSTAR":5.2738677e-5,"MEAN_MOTION_DOT":6.7e-7,"MEAN_MOTION_DDOT":0}]
