TDRS 11                 
1 39070U 13004A   26115.91718157  .00000068  00000+0  00000+0 0  9993
2 39070   3.4447  30.3405 0005423   0.8571 338.7720  1.00264257 46167
TDRS 12                 
1 39504U 14004A   26115.91554618 -.00000282  00000+0  00000+0 0  9995
2 39504   3.9278  18.2118 0002005 247.6066 236.8049  1.00269717 43755
GPM-CORE                
1 39574U 14009C   26115.97140730  .00007699  00000+0  16923-3 0  9992
2 39574  64.9709 123.1058 0012225 260.3961  99.5798 15.44651689689744
MMS 1                   
1 40482U 15011A   26116.00003472 -.00000700  00000+0  00000+0 0  9994
2 40482  71.4226 349.4850 8365409 166.4039  14.7519  0.28219139  1350
MMS 2                   
1 40483U 15011B   26116.00003472 -.00000701  00000+0  00000+0 0  9996
2 40483  71.4227 349.4872 8366173 166.4098  14.7376  0.28218983  1357
MMS 3                   
1 40484U 15011C   26116.00003472 -.00000700  00000+0  00000+0 0  9996
2 40484  71.4255 349.4918 8365405 166.4041  14.7398  0.28218950  1353
MMS 4                   
1 40485U 15011D   26116.00003472 -.00000701  00000+0  00000+0 0  9998
2 40485  71.4226 349.4872 8364966 166.4118  14.7271  0.28218770  1357
TDRS 13                 
1 42915U 17047A   26115.92135287 -.00000112  00000+0  00000+0 0  9995
2 42915   3.4406   1.4356 0012831  98.4587  74.2455  1.00271810 31826
NOAA 20 (JPSS-1)        
1 43013U 17073A   26115.84180819  .00000067  00000+0  52739-4 0  9995
2 43013  98.7744  55.7767 0002107  73.3563 286.7844 14.19547502437041
